LANDSAT 9               
1 49260U 21088A   24293.18845652  .00002183  00000+0  49446-3 0  9992
2 49260  98.2196   1.2273 0001262  76.9203 283.2136 14.57100472162747
